STARLINK-35660          
1 67003U 25293A   25353.25002315 -.01075852  35329-3 -29091-2 0  9991
2 67003  69.9948 304.9007 0003922 270.5051 321.0954 15.94080106  1304
STARLINK-35913          
1 67004U 25293B   25353.25002315 -.01081065  35665-3 -29151-2 0  9995
2 67004  69.9948 304.8983 0003878 269.6191 323.8779 15.94133495  1306
STARLINK-36148          
1 67005U 25293C   25353.25002315 -.01077187  35447-3 -28968-2 0  9999
2 67005  69.9951 304.8962 0003987 271.9667 323.5535 15.94182839  1306
STARLINK-36156          
1 67006U 25293D   25353.25002315 -.01086051  36036-3 -29006-2 0  9999
2 67006  69.9947 304.8898 0003958 270.2234 330.0888 15.94314602  1309
STARLINK-36123          
1 67007U 25293E   25353.25002315 -.01089523  36229-3 -29183-2 0  9997
2 67007  69.9944 304.8924 0003913 269.8508 328.2935 15.94260692  1307
STARLINK-36163          
1 67008U 25293F   25353.25002315 -.01104596  37213-3 -29371-2 0  9999
2 67008  69.9949 304.8865 0003928 271.0344 332.1400 15.94401265  1300
STARLINK-36118          
1 67009U 25293G   25353.25002315 -.01109952  37572-3 -29414-2 0  9997
2 67009  69.9949 304.8839 0003910 269.9660 335.5516 15.94465934  1308
STARLINK-36189          
1 67010U 25293H   25353.25002315 -.01113660  37849-3 -29333-2 0  9997
2 67010  69.9950 304.8789 0003876 269.5657 340.1126 15.94581350  1309
STARLINK-36167          
1 67011U 25293J   25353.25002315 -.01101130  37039-3 -29112-2 0  9993
2 67011  69.9949 304.8820 0003909 269.8323 337.4674 15.94508836  1309
STARLINK-36175          
1 67012U 25293K   25353.26892629 -.00343910  43937-4 -88596-3 0  9990
2 67012  69.9950 304.8220 0003035 285.0090  75.0782 15.94877536  2657
STARLINK-35856          
1 67013U 25293L   25353.25002315 -.01123213  38499-3 -29395-2 0  9995
2 67013  69.9945 304.8734 0003917 270.3283 343.6128 15.94703073  1305
STARLINK-36207          
1 67014U 25293M   25353.25002315 -.01127870  38819-3 -29420-2 0  9994
2 67014  69.9950 304.8710 0003935 272.4321 343.6994 15.94765841  1304
