CCSDS_OMM_VERS = 2.0
CREATION_DATE  = 
ORIGINATOR     = 

OBJECT_NAME    = STARLINK-35660
OBJECT_ID      = 2025-293A
CENTER_NAME    = EARTH
REF_FRAME      = TEME
TIME_SYSTEM    = UTC
MEAN_ELEMENT_THEORY = SGP/SGP4

EPOCH          = 2025-12-19T06:00:02.000160
MEAN_MOTION    = 15.94080106
ECCENTRICITY   = .00039221
INCLINATION    = 69.9948
RA_OF_ASC_NODE = 304.9007
ARG_OF_PERICENTER = 270.5051
MEAN_ANOMALY   = 321.0954

EPHEMERIS_TYPE = 0
CLASSIFICATION_TYPE = U
NORAD_CAT_ID   = 67003
ELEMENT_SET_NO = 999
REV_AT_EPOCH   = 130
BSTAR          = -.29090613E-2
MEAN_MOTION_DOT = -.1075852E-1
MEAN_MOTION_DDOT = .35328821E-3

CCSDS_OMM_VERS = 2.0
CREATION_DATE  = 
ORIGINATOR     = 

OBJECT_NAME    = STARLINK-35913
OBJECT_ID      = 2025-293B
CENTER_NAME    = EARTH
REF_FRAME      = TEME
TIME_SYSTEM    = UTC
MEAN_ELEMENT_THEORY = SGP/SGP4

EPOCH          = 2025-12-19T06:00:02.000160
MEAN_MOTION    = 15.94133495
ECCENTRICITY   = .00038782
INCLINATION    = 69.9948
RA_OF_ASC_NODE = 304.8983
ARG_OF_PERICENTER = 269.6191
MEAN_ANOMALY   = 323.8779

EPHEMERIS_TYPE = 0
CLASSIFICATION_TYPE = U
NORAD_CAT_ID   = 67004
ELEMENT_SET_NO = 999
REV_AT_EPOCH   = 130
BSTAR          = -.29150903E-2
MEAN_MOTION_DOT = -.1081065E-1
MEAN_MOTION_DDOT = .35665051E-3

CCSDS_OMM_VERS = 2.0
CREATION_DATE  = 
ORIGINATOR     = 

OBJECT_NAME    = STARLINK-36148
OBJECT_ID      = 2025-293C
CENTER_NAME    = EARTH
REF_FRAME      = TEME
TIME_SYSTEM    = UTC
MEAN_ELEMENT_THEORY = SGP/SGP4

EPOCH          = 2025-12-19T06:00:02.000160
MEAN_MOTION    = 15.94182839
ECCENTRICITY   = .00039872
INCLINATION    = 69.9951
RA_OF_ASC_NODE = 304.8962
ARG_OF_PERICENTER = 271.9667
MEAN_ANOMALY   = 323.5535

EPHEMERIS_TYPE = 0
CLASSIFICATION_TYPE = U
NORAD_CAT_ID   = 67005
ELEMENT_SET_NO = 999
REV_AT_EPOCH   = 130
BSTAR          = -.28968495E-2
MEAN_MOTION_DOT = -.1077187E-1
MEAN_MOTION_DDOT = .35447112E-3

CCSDS_OMM_VERS = 2.0
CREATION_DATE  = 
ORIGINATOR     = 

OBJECT_NAME    = STARLINK-36156
OBJECT_ID      = 2025-293D
CENTER_NAME    = EARTH
REF_FRAME      = TEME
TIME_SYSTEM    = UTC
MEAN_ELEMENT_THEORY = SGP/SGP4

EPOCH          = 2025-12-19T06:00:02.000160
MEAN_MOTION    = 15.94314602
ECCENTRICITY   = .00039587
INCLINATION    = 69.9947
RA_OF_ASC_NODE = 304.8898
ARG_OF_PERICENTER = 270.2234
MEAN_ANOMALY   = 330.0888

EPHEMERIS_TYPE = 0
CLASSIFICATION_TYPE = U
NORAD_CAT_ID   = 67006
ELEMENT_SET_NO = 999
REV_AT_EPOCH   = 130
BSTAR          = -.29006201E-2
MEAN_MOTION_DOT = -.1086051E-1
MEAN_MOTION_DDOT = .36036296E-3

CCSDS_OMM_VERS = 2.0
CREATION_DATE  = 
ORIGINATOR     = 

OBJECT_NAME    = STARLINK-36123
OBJECT_ID      = 2025-293E
CENTER_NAME    = EARTH
REF_FRAME      = TEME
TIME_SYSTEM    = UTC
MEAN_ELEMENT_THEORY = SGP/SGP4

EPOCH          = 2025-12-19T06:00:02.000160
MEAN_MOTION    = 15.94260692
ECCENTRICITY   = .00039139
INCLINATION    = 69.9944
RA_OF_ASC_NODE = 304.8924
ARG_OF_PERICENTER = 269.8508
MEAN_ANOMALY   = 328.2935

EPHEMERIS_TYPE = 0
CLASSIFICATION_TYPE = U
NORAD_CAT_ID   = 67007
ELEMENT_SET_NO = 999
REV_AT_EPOCH   = 130
BSTAR          = -.29183448E-2
MEAN_MOTION_DOT = -.1089523E-1
MEAN_MOTION_DDOT = .36229177E-3

CCSDS_OMM_VERS = 2.0
CREATION_DATE  = 
ORIGINATOR     = 

OBJECT_NAME    = STARLINK-36163
OBJECT_ID      = 2025-293F
CENTER_NAME    = EARTH
REF_FRAME      = TEME
TIME_SYSTEM    = UTC
MEAN_ELEMENT_THEORY = SGP/SGP4

EPOCH          = 2025-12-19T06:00:02.000160
MEAN_MOTION    = 15.94401265
ECCENTRICITY   = .00039286
INCLINATION    = 69.9949
RA_OF_ASC_NODE = 304.8865
ARG_OF_PERICENTER = 271.0344
MEAN_ANOMALY   = 332.1400

EPHEMERIS_TYPE = 0
CLASSIFICATION_TYPE = U
NORAD_CAT_ID   = 67008
ELEMENT_SET_NO = 999
REV_AT_EPOCH   = 130
BSTAR          = -.29370963E-2
MEAN_MOTION_DOT = -.1104596E-1
MEAN_MOTION_DDOT = .37213458E-3

CCSDS_OMM_VERS = 2.0
CREATION_DATE  = 
ORIGINATOR     = 

OBJECT_NAME    = STARLINK-36118
OBJECT_ID      = 2025-293G
CENTER_NAME    = EARTH
REF_FRAME      = TEME
TIME_SYSTEM    = UTC
MEAN_ELEMENT_THEORY = SGP/SGP4

EPOCH          = 2025-12-19T06:00:02.000160
MEAN_MOTION    = 15.94465934
ECCENTRICITY   = .00039106
INCLINATION    = 69.9949
RA_OF_ASC_NODE = 304.8839
ARG_OF_PERICENTER = 269.9660
MEAN_ANOMALY   = 335.5516

EPHEMERIS_TYPE = 0
CLASSIFICATION_TYPE = U
NORAD_CAT_ID   = 67009
ELEMENT_SET_NO = 999
REV_AT_EPOCH   = 130
BSTAR          = -.29413754E-2
MEAN_MOTION_DOT = -.1109952E-1
MEAN_MOTION_DDOT = .37572167E-3

CCSDS_OMM_VERS = 2.0
CREATION_DATE  = 
ORIGINATOR     = 

OBJECT_NAME    = STARLINK-36189
OBJECT_ID      = 2025-293H
CENTER_NAME    = EARTH
REF_FRAME      = TEME
TIME_SYSTEM    = UTC
MEAN_ELEMENT_THEORY = SGP/SGP4

EPOCH          = 2025-12-19T06:00:02.000160
MEAN_MOTION    = 15.94581350
ECCENTRICITY   = .00038768
INCLINATION    = 69.9950
RA_OF_ASC_NODE = 304.8789
ARG_OF_PERICENTER = 269.5657
MEAN_ANOMALY   = 340.1126

EPHEMERIS_TYPE = 0
CLASSIFICATION_TYPE = U
NORAD_CAT_ID   = 67010
ELEMENT_SET_NO = 999
REV_AT_EPOCH   = 130
BSTAR          = -.29332942E-2
MEAN_MOTION_DOT = -.111366E-1
MEAN_MOTION_DDOT = .37849155E-3

CCSDS_OMM_VERS = 2.0
CREATION_DATE  = 
ORIGINATOR     = 

OBJECT_NAME    = STARLINK-36167
OBJECT_ID      = 2025-293J
CENTER_NAME    = EARTH
REF_FRAME      = TEME
TIME_SYSTEM    = UTC
MEAN_ELEMENT_THEORY = SGP/SGP4

EPOCH          = 2025-12-19T06:00:02.000160
MEAN_MOTION    = 15.94508836
ECCENTRICITY   = .00039091
INCLINATION    = 69.9949
RA_OF_ASC_NODE = 304.8820
ARG_OF_PERICENTER = 269.8323
MEAN_ANOMALY   = 337.4674

EPHEMERIS_TYPE = 0
CLASSIFICATION_TYPE = U
NORAD_CAT_ID   = 67011
ELEMENT_SET_NO = 999
REV_AT_EPOCH   = 130
BSTAR          = -.29111573E-2
MEAN_MOTION_DOT = -.110113E-1
MEAN_MOTION_DDOT = .37039266E-3

CCSDS_OMM_VERS = 2.0
CREATION_DATE  = 
ORIGINATOR     = 

OBJECT_NAME    = STARLINK-36175
OBJECT_ID      = 2025-293K
CENTER_NAME    = EARTH
REF_FRAME      = TEME
TIME_SYSTEM    = UTC
MEAN_ELEMENT_THEORY = SGP/SGP4

EPOCH          = 2025-12-19T06:27:15.231456
MEAN_MOTION    = 15.94877536
ECCENTRICITY   = .0003035
INCLINATION    = 69.9950
RA_OF_ASC_NODE = 304.8220
ARG_OF_PERICENTER = 285.0090
MEAN_ANOMALY   = 75.0782

EPHEMERIS_TYPE = 0
CLASSIFICATION_TYPE = U
NORAD_CAT_ID   = 67012
ELEMENT_SET_NO = 999
REV_AT_EPOCH   = 265
BSTAR          = -.88596101E-3
MEAN_MOTION_DOT = -.34391E-2
MEAN_MOTION_DDOT = .43936608E-4

CCSDS_OMM_VERS = 2.0
CREATION_DATE  = 
ORIGINATOR     = 

OBJECT_NAME    = STARLINK-35856
OBJECT_ID      = 2025-293L
CENTER_NAME    = EARTH
REF_FRAME      = TEME
TIME_SYSTEM    = UTC
MEAN_ELEMENT_THEORY = SGP/SGP4

EPOCH          = 2025-12-19T06:00:02.000160
MEAN_MOTION    = 15.94703073
ECCENTRICITY   = .00039175
INCLINATION    = 69.9945
RA_OF_ASC_NODE = 304.8734
ARG_OF_PERICENTER = 270.3283
MEAN_ANOMALY   = 343.6128

EPHEMERIS_TYPE = 0
CLASSIFICATION_TYPE = U
NORAD_CAT_ID   = 67013
ELEMENT_SET_NO = 999
REV_AT_EPOCH   = 130
BSTAR          = -.2939541E-2
MEAN_MOTION_DOT = -.1123213E-1
MEAN_MOTION_DDOT = .38498793E-3

CCSDS_OMM_VERS = 2.0
CREATION_DATE  = 
ORIGINATOR     = 

OBJECT_NAME    = STARLINK-36207
OBJECT_ID      = 2025-293M
CENTER_NAME    = EARTH
REF_FRAME      = TEME
TIME_SYSTEM    = UTC
MEAN_ELEMENT_THEORY = SGP/SGP4

EPOCH          = 2025-12-19T06:00:02.000160
MEAN_MOTION    = 15.94765841
ECCENTRICITY   = .00039356
INCLINATION    = 69.9950
RA_OF_ASC_NODE = 304.8710
ARG_OF_PERICENTER = 272.4321
MEAN_ANOMALY   = 343.6994

EPHEMERIS_TYPE = 0
CLASSIFICATION_TYPE = U
NORAD_CAT_ID   = 67014
ELEMENT_SET_NO = 999
REV_AT_EPOCH   = 130
BSTAR          = -.29419705E-2
MEAN_MOTION_DOT = -.112787E-1
MEAN_MOTION_DDOT = .38818957E-3

